FENGYUN 1C DEB          
1 38792U 99025EUG 17344.82000075  .00002181  00000-0  27630-3 0  9998
2 38792  99.6038 292.3787 0106278 307.9964  51.1681 14.79323823198895
